{"fetched_at":"2026-03-29T16:36:15Z","count":15609,"tles":[{"name":"STARLINK-2570","line1":"1 48405U 21038BE  26087.70965903  .00021665  00000+0  74047-3 0  9991","line2":"2 48405  53.1558 244.5168 0000922  92.0635 268.0471 15.30244381270343","category":"Starlink"}]}