{
  "norad_id": 48405,
  "name": "STARLINK-2570",
  "history": [
    {
      "epoch": "2026-03-28T17:01:54.540192",
      "apogee_km": 475.71449433129055,
      "perigee_km": 474.45062358022733,
      "latitude_deg": 40.65971863848966,
      "longitude_deg": 168.62726687989198,
      "semi_major_axis_km": 6853.219558955759,
      "eccentricity": 9.221e-05,
      "inclination_deg": 53.1558,
      "raan_deg": 244.5168,
      "arg_perigee_deg": 92.0635,
      "mean_anomaly_deg": 268.0471,
      "mean_motion_rev_day": 15.30244381
    }
  ]
}